*******************************************************************************
 Revised: Dec 02, 2013             Metis  / (Jupiter)                       516

 SATELLITE PHYSICAL PROPERTIES:
  Radius (km)             =  20 +- 10       Density (g cm^-3)   =              
  Mass (10^20 kg )        =                 Geometric Albedo    =   0.05-0.10
                                            V(1,0)              = +10.8 

 SATELLITE ORBITAL DATA:
  Semi-major axis, a (km) = 127.96 (10^3)   Orbital period      = 0.294780 d
  Eccentricity, e         =  < 0.004        Rotational period   = Synchronous 
  Inclination, i  (deg)   =  ~ 0 
******************************************************************************
 
 
*******************************************************************************
Ephemeris / WWW_USER Fri Nov 10 01:33:10 2017 Pasadena, USA      / Horizons    
*******************************************************************************
Target body name: Metis (516)                     {source: jup310}
Center body name: Solar System Barycenter (0)     {source: DE431mx}
Center-site name: BODY CENTER
*******************************************************************************
Start time      : A.D. 2017-Jul-10 00:00:00.0000 TDB
Stop  time      : A.D. 2020-Aug-13 00:00:00.0000 TDB
Step-size       : 1440 minutes
*******************************************************************************
Center geodetic : 0.00000000,0.00000000,0.0000000 {E-lon(deg),Lat(deg),Alt(km)}
Center cylindric: 0.00000000,0.00000000,0.0000000 {E-lon(deg),Dxy(km),Dz(km)}
Center radii    : (undefined)                                                  
Output units    : KM-S                                                         
Output type     : GEOMETRIC cartesian states
Output format   : 3 (position, velocity, LT, range, range-rate)
Reference frame : ICRF/J2000.0                                                 
Coordinate systm: Ecliptic and Mean Equinox of Reference Epoch                 
*******************************************************************************
            JDTDB,            Calendar Date (TDB),                      X,                      Y,                      Z,                     VX,                     VY,                     VZ,                     LT,                     RG,                     RR,
**************************************************************************************************************************************************************************************************************************************************************************
$$SOE
2458916.500000000, A.D. 2020-Mar-08 00:00:00.0000,  1.519198662307313E+08, -7.620546634501630E+08, -2.364180299464464E+05, -1.374542555918221E+01, -1.410762274310283E+01, -1.298643537956646E+00,  2.591960465463790E+03,  7.770501989802135E+08,  1.114842197255404E+01,
2458917.500000000, A.D. 2020-Mar-09 00:00:00.0000,  1.530707407740418E+08, -7.620137304540987E+08, -2.696071076458097E+05,  4.406304090604394E+01,  1.294292727455459E-01,  4.766603436217155E-02,  2.592579909237089E+03,  7.772359035516039E+08,  8.550972166647130E+00,
2458918.500000000, A.D. 2020-Mar-10 00:00:00.0000,  1.542652007435545E+08, -7.615180204931418E+08, -2.858589887924194E+05, -9.972562353182470E+00,  2.525787171079259E+01,  1.694323018876656E-01,  2.591746932938886E+03,  7.769861835397099E+08, -2.673508573798036E+01,
2458919.500000000, A.D. 2020-Mar-11 00:00:00.0000,  1.551414488114198E+08, -7.613466101507714E+08, -3.184433798969388E+05,  1.649129779605645E+01, -2.807203073054134E+01, -1.367436903731889E+00,  2.591768616878921E+03,  7.769926842213917E+08,  3.080011589146087E+01,
2458920.500000000, A.D. 2020-Mar-12 00:00:00.0000,  1.564693869648640E+08, -7.611183130629721E+08, -3.424778982466459E+05,  2.926958859164964E+01,  3.006349345967343E+01,  9.112582898304940E-01,  2.591910800831023E+03,  7.770353098978808E+08, -2.355413286351984E+01,
2458921.500000000, A.D. 2020-Mar-13 00:00:00.0000,  1.574096738500630E+08, -7.606484821752797E+08, -3.635004931175113E+05, -1.713177036615255E+01, -7.257803090130794E+00, -1.109243268508969E+00,  2.591009542928166E+03,  7.767651195758911E+08,  3.636020281963683E+00,
2458922.500000000, A.D. 2020-Mar-14 00:00:00.0000,  1.585016254601171E+08, -7.606064522886937E+08, -3.977789603370428E+05,  4.242022948203149E+01, -7.124773421707813E+00, -2.362288910065145E-01,  2.591612920513285E+03,  7.769460076252362E+08,  1.562903703558123E+01,
2458923.500000000, A.D. 2020-Mar-15 00:00:00.0000,  1.597434905954866E+08, -7.601330842456180E+08, -4.143775536016226E+05, -4.100762443511046E+00,  3.008774117159389E+01,  4.236149765114359E-01,  2.590915946008005E+03,  7.767370599251351E+08, -3.028815586626190E+01,
2458924.500000000, A.D. 2020-Mar-16 00:00:00.0000,  1.605986694003653E+08, -7.598992520476184E+08, -4.453193581706285E+05,  8.934204285279133E+00, -2.800900483903118E+01, -1.478763727847319E+00,  2.590741036499404E+03,  7.766846233736241E+08,  2.925190094735498E+01,
2458925.500000000, A.D. 2020-Mar-17 00:00:00.0000,  1.619059109692416E+08, -7.597173654021643E+08, -4.715518409222364E+05,  3.512816501650607E+01,  2.543673711960376E+01,  8.300501939727241E-01,  2.591052851744951E+03,  7.767781032325283E+08, -1.755670597072963E+01,
2458926.500000000, A.D. 2020-Mar-18 00:00:00.0000,  1.628935869622834E+08, -7.592090749124223E+08, -4.907807246753573E+05, -1.880860587064121E+01,  2.105789287084514E-01, -8.723530717705923E-01,  2.590083811522738E+03,  7.764875922824104E+08, -4.151059988147708E+00,
2458927.500000000, A.D. 2020-Mar-19 00:00:00.0000,  1.639266072195339E+08, -7.591521310314128E+08, -5.256376002433896E+05,  3.909388689683254E+01, -1.378921177617242E+01, -5.230067301739183E-01,  2.590623278500271E+03,  7.766493204136146E+08,  2.173041579455865E+01,
2458928.500000000, A.D. 2020-Mar-20 00:00:00.0000,  1.652071272255092E+08, -7.587117682708513E+08, -5.431014348084331E+05,  2.720347724982961E+00,  3.336849820480084E+01,  6.349141864733614E-01,  2.590092953391082E+03,  7.764903329455918E+08, -3.202615050373901E+01,
2458929.500000000, A.D. 2020-Mar-21 00:00:00.0000,  1.660546155560658E+08, -7.584124214999815E+08, -5.720858753415346E+05,  1.565632546540158E+00, -2.615239250855560E+01, -1.521378584237272E+00,  2.589720538494064E+03,  7.763786857682192E+08,  2.588318119573897E+01,
2458930.500000000, A.D. 2020-Mar-22 00:00:00.0000,  1.673286820108423E+08, -7.582709106505942E+08, -6.004774816327095E+05,  3.970166748067635E+01,  1.956933121733919E+01,  6.840699558813865E-01,  2.590171962921673E+03,  7.765140194069731E+08, -1.055491269131794E+01,
2458931.500000000, A.D. 2020-Mar-23 00:00:00.0000,  1.683692348255249E+08, -7.577366876623783E+08, -6.182853871023059E+05, -1.867435876819526E+01,  7.855136248779716E+00, -6.015581014351636E-01,  2.589182584207907E+03,  7.762174111304804E+08, -1.171828968782661E+01,
2458932.500000000, A.D. 2020-Mar-24 00:00:00.0000,  1.693463389551070E+08, -7.576517105599364E+08, -6.531929229369760E+05,  3.425438061079974E+01, -1.949700494705454E+01, -7.979168133982668E-01,  2.589614973507134E+03,  7.763470381813085E+08,  2.650015171096210E+01,
2458933.500000000, A.D. 2020-Mar-25 00:00:00.0000,  1.706547063101844E+08, -7.572530715790029E+08, -6.720029660614729E+05,  1.008881436941214E+01,  3.493243795148769E+01,  7.921814018041111E-01,  2.589273310377094E+03,  7.762446101517459E+08, -3.186047839571339E+01,
2458934.500000000, A.D. 2020-Mar-26 00:00:00.0000,  1.715086234948831E+08, -7.568885654229612E+08, -6.988225709174275E+05, -5.173721270991557E+00, -2.258513191756830E+01, -1.492198705312203E+00,  2.588715269297390E+03,  7.760773136447963E+08,  2.088468865229132E+01,
2458935.500000000, A.D. 2020-Mar-27 00:00:00.0000,  1.727389859339202E+08, -7.567785823931794E+08, -7.292139217696786E+05,  4.274859133292790E+01,  1.278553290667062E+01,  4.813030762079498E-01,  2.589267760586265E+03,  7.762429463663120E+08, -2.952452109136779E+00,
2458936.500000000, A.D. 2020-Mar-28 00:00:00.0000,  1.738351646496407E+08, -7.562317706501162E+08, -7.460376683009863E+05, -1.674826855580529E+01,  1.523005803826681E+01, -3.126018574266656E-01,  2.588306307581290E+03,  7.759547100066988E+08, -1.859471742428366E+01,
2458937.500000000, A.D. 2020-Mar-29 00:00:00.0000,  1.747627294999200E+08, -7.561063151590244E+08, -7.804461644853354E+05,  2.815793524871577E+01, -2.389680548291169E+01, -1.045406484648323E+00,  2.588593595985222E+03,  7.760408369034685E+08,  2.962511500570031E+01,
2458938.500000000, A.D. 2020-Mar-30 00:00:00.0000,  1.760861643094862E+08, -7.557547971224066E+08, -8.009919040033817E+05,  1.758794596649828E+01,  3.471949111055169E+01,  8.880291864709022E-01,  2.588449409773389E+03,  7.759976109646134E+08, -2.982372496294870E+01,
2458939.500000000, A.D. 2020-Mar-31 00:00:00.0000,  1.769596005080950E+08, -7.553288226732016E+08, -8.255732543006539E+05, -1.088197601488210E+01, -1.751912689773838E+01, -1.393670197130330E+00,  2.587728705442746E+03,  7.757815492418388E+08,  1.457650282285051E+01,
2458940.500000000, A.D. 2020-Apr-01 00:00:00.0000,  1.781379697579704E+08, -7.552394277837617E+08, -8.577028953810334E+05,  4.408435905592118E+01,  5.453781398528107E+00,  2.326148353158410E-01,  2.588338017645742E+03,  7.759642164448643E+08,  4.812062056560905E+00,
2458941.500000000, A.D. 2020-Apr-02 00:00:00.0000,  1.792893838973724E+08, -7.546936929741337E+08, -8.740294892941117E+05, -1.316397158597314E+01,  2.192812836297027E+01, -2.193503336741021E-02,  2.587451369977572E+03,  7.756984061610436E+08, -2.437695012326834E+01,
2458942.500000000, A.D. 2020-Apr-03 00:00:00.0000,  1.801764525745762E+08, -7.545172443806950E+08, -9.074269635967016E+05,  2.115727657410514E+01, -2.671070633211997E+01, -1.250900214620465E+00,  2.587564531479356E+03,  7.757323311258144E+08,  3.089579448394934E+01,
